CTC1_L_00389001-01
1 10000U 23359LO  26075.70034722  .00000000  00000+0  00000-0 0  9997
2 10000  70.0000   0.0000 0000000   0.0000   0.0000 13.03091871    14
CTC1_L_00389001-02
1 10001U 26004XM  26075.70034722  .00000000  00000+0  00000-0 0  9998
2 10001  70.0000   0.0000 0000000   0.0000  90.0000 13.03091871    14
CTC1_L_00389001-03
1 10002U 24086LM  26075.70034722  .00000000  00000+0  00000-0 0  9997
2 10002  70.0000   0.0000 0000000   0.0000 180.0000 13.03091871    15
CTC1_L_00389001-04
1 10003U 25531ZY  26075.70034722  .00000000  00000+0  00000-0 0  9994
2 10003  70.0000   0.0000 0000000   0.0000 270.0000 13.03091871    16
CTC1_L_00389002-01
1 10004U 25753VD  26075.70034722  .00000000  00000+0  00000-0 0  9991
2 10004  70.0000  12.0000 0000000   0.0000  12.0000 13.03091871    14
CTC1_L_00389002-02
1 10005U 26272HY  26075.70034722  .00000000  00000+0  00000-0 0  9999
2 10005  70.0000  12.0000 0000000   0.0000 102.0000 13.03091871    15
CTC1_L_00389002-03
1 10006U 23546WO  26075.70034722  .00000000  00000+0  00000-0 0  9991
2 10006  70.0000  12.0000 0000000   0.0000 192.0000 13.03091871    15
CTC1_L_00389002-04
1 10007U 23438NJ  26075.70034722  .00000000  00000+0  00000-0 0  9992
2 10007  70.0000  12.0000 0000000   0.0000 282.0000 13.03091871    16
CTC1_L_00389003-01
1 10008U 23635MQ  26075.70034722  .00000000  00000+0  00000-0 0  9992
2 10008  70.0000  24.0000 0000000   0.0000  24.0000 13.03091871    14
CTC1_L_00389003-02
1 10009U 24749AU  26075.70034722  .00000000  00000+0  00000-0 0  9990
2 10009  70.0000  24.0000 0000000   0.0000 114.0000 13.03091871    15
CTC1_L_00389003-03
1 10010U 26365KM  26075.70034722  .00000000  00000+0  00000-0 0  9998
2 10010  70.0000  24.0000 0000000   0.0000 204.0000 13.03091871    17
CTC1_L_00389003-04
1 10011U 23039XK  26075.70034722  .00000000  00000+0  00000-0 0  9994
2 10011  70.0000  24.0000 0000000   0.0000 294.0000 13.03091871    17
CTC1_L_00389004-01
1 10012U 24229PB  26075.70034722  .00000000  00000+0  00000-0 0  9997
2 10012  70.0000  36.0000 0000000   0.0000  36.0000 13.03091871    15
CTC1_L_00389004-02
1 10013U 23085MW  26075.70034722  .00000000  00000+0  00000-0 0  9997
2 10013  70.0000  36.0000 0000000   0.0000 126.0000 13.03091871    16
CTC1_L_00389004-03
1 10014U 25248LI  26075.70034722  .00000000  00000+0  00000-0 0  9991
2 10014  70.0000  36.0000 0000000   0.0000 216.0000 13.03091871    17
CTC1_L_00389004-04
1 10015U 23422LA  26075.70034722  .00000000  00000+0  00000-0 0  9994
2 10015  70.0000  36.0000 0000000   0.0000 306.0000 13.03091871    18
CTC1_L_00389005-01
1 10016U 23729RR  26075.70034722  .00000000  00000+0  00000-0 0  9995
2 10016  70.0000  48.0000 0000000   0.0000  48.0000 13.03091871    15
CTC1_L_00389005-02
1 10017U 23312RN  26075.70034722  .00000000  00000+0  00000-0 0  9994
2 10017  70.0000  48.0000 0000000   0.0000 138.0000 13.03091871    16
CTC1_L_00389005-03
1 10018U 22370GO  26075.70034722  .00000000  00000+0  00000-0 0  9998
2 10018  70.0000  48.0000 0000000   0.0000 228.0000 13.03091871    17
CTC1_L_00389005-04
1 10019U 26085HW  26075.70034722  .00000000  00000+0  00000-0 0  9996
2 10019  70.0000  48.0000 0000000   0.0000 318.0000 13.03091871    18
CTC1_L_00389006-01
1 10020U 26685RE  26075.70034722  .00000000  00000+0  00000-0 0  9994
2 10020  70.0000  60.0000 0000000   0.0000  60.0000 13.03091871    18
CTC1_L_00389006-02
1 10021U 25430PP  26075.70034722  .00000000  00000+0  00000-0 0  9992
2 10021  70.0000  60.0000 0000000   0.0000 150.0000 13.03091871    19
CTC1_L_00389006-03
1 10022U 23506JH  26075.70034722  .00000000  00000+0  00000-0 0  9995
2 10022  70.0000  60.0000 0000000   0.0000 240.0000 13.03091871    10
CTC1_L_00389006-04
1 10023U 25228IU  26075.70034722  .00000000  00000+0  00000-0 0  9999
2 10023  70.0000  60.0000 0000000   0.0000 330.0000 13.03091871    11
CTC1_L_00389007-01
1 10024U 24037MK  26075.70034722  .00000000  00000+0  00000-0 0  9997
2 10024  70.0000  72.0000 0000000   0.0000  72.0000 13.03091871    18
CTC1_L_00389007-02
1 10025U 25904OD  26075.70034722  .00000000  00000+0  00000-0 0  9992
2 10025  70.0000  72.0000 0000000   0.0000 162.0000 13.03091871    19
CTC1_L_00389007-03
1 10026U 22538XZ  26075.70034722  .00000000  00000+0  00000-0 0  9993
2 10026  70.0000  72.0000 0000000   0.0000 252.0000 13.03091871    10
CTC1_L_00389007-04
1 10027U 26498OF  26075.70034722  .00000000  00000+0  00000-0 0  9993
2 10027  70.0000  72.0000 0000000   0.0000 342.0000 13.03091871    11
CTC1_L_00389008-01
1 10028U 22526ED  26075.70034722  .00000000  00000+0  00000-0 0  9992
2 10028  70.0000  84.0000 0000000   0.0000  84.0000 13.03091871    18
CTC1_L_00389008-02
1 10029U 25474TV  26075.70034722  .00000000  00000+0  00000-0 0  9998
2 10029  70.0000  84.0000 0000000   0.0000 174.0000 13.03091871    19
CTC1_L_00389008-03
1 10030U 22322JK  26075.70034722  .00000000  00000+0  00000-0 0  9999
2 10030  70.0000  84.0000 0000000   0.0000 264.0000 13.03091871    11
CTC1_L_00389008-04
1 10031U 23998HH  26075.70034722  .00000000  00000+0  00000-0 0  9990
2 10031  70.0000  84.0000 0000000   0.0000 354.0000 13.03091871    12
CTC1_L_00389009-01
1 10032U 25518RJ  26075.70034722  .00000000  00000+0  00000-0 0  9991
2 10032  70.0000  96.0000 0000000   0.0000  96.0000 13.03091871    19
CTC1_L_00389009-02
1 10033U 25386CW  26075.70034722  .00000000  00000+0  00000-0 0  9995
2 10033  70.0000  96.0000 0000000   0.0000 186.0000 13.03091871    10
CTC1_L_00389009-03
1 10034U 23473E   26075.70034722  .00000000  00000+0  00000-0 0  9991
2 10034  70.0000  96.0000 0000000   0.0000 276.0000 13.03091871    11
CTC1_L_00389009-04
1 10035U 24650CJ  26075.70034722  .00000000  00000+0  00000-0 0  9990
2 10035  70.0000  96.0000 0000000   0.0000   6.0000 13.03091871    13
CTC1_L_00389010-01
1 10036U 24205MK  26075.70034722  .00000000  00000+0  00000-0 0  9997
2 10036  70.0000 108.0000 0000000   0.0000 108.0000 13.03091871    11
CTC1_L_00389010-02
1 10037U 26272CM  26075.70034722  .00000000  00000+0  00000-0 0  9994
2 10037  70.0000 108.0000 0000000   0.0000 198.0000 13.03091871    11
CTC1_L_00389010-03
1 10038U 22732SF  26075.70034722  .00000000  00000+0  00000-0 0  9992
2 10038  70.0000 108.0000 0000000   0.0000 288.0000 13.03091871    12
CTC1_L_00389010-04
1 10039U 26193YL  26075.70034722  .00000000  00000+0  00000-0 0  9998
2 10039  70.0000 108.0000 0000000   0.0000  18.0000 13.03091871    14
CTC1_L_00389011-01
1 10040U 24373YR  26075.70034722  .00000000  00000+0  00000-0 0  9998
2 10040  70.0000 120.0000 0000000   0.0000 120.0000 13.03091871    14
CTC1_L_00389011-02
1 10041U 22729YA  26075.70034722  .00000000  00000+0  00000-0 0  9992
2 10041  70.0000 120.0000 0000000   0.0000 210.0000 13.03091871    15
CTC1_L_00389011-03
1 10042U 22654ZE  26075.70034722  .00000000  00000+0  00000-0 0  9990
2 10042  70.0000 120.0000 0000000   0.0000 300.0000 13.03091871    16
CTC1_L_00389011-04
1 10043U 25944TH  26075.70034722  .00000000  00000+0  00000-0 0  9996
2 10043  70.0000 120.0000 0000000   0.0000  30.0000 13.03091871    17
CTC1_L_00389012-01
1 10044U 25804YV  26075.70034722  .00000000  00000+0  00000-0 0  9992
2 10044  70.0000 132.0000 0000000   0.0000 132.0000 13.03091871    14
CTC1_L_00389012-02
1 10045U 23878NX  26075.70034722  .00000000  00000+0  00000-0 0  9992
2 10045  70.0000 132.0000 0000000   0.0000 222.0000 13.03091871    15
CTC1_L_00389012-03
1 10046U 23385SB  26075.70034722  .00000000  00000+0  00000-0 0  9996
2 10046  70.0000 132.0000 0000000   0.0000 312.0000 13.03091871    16
CTC1_L_00389012-04
1 10047U 22399HP  26075.70034722  .00000000  00000+0  00000-0 0  9991
2 10047  70.0000 132.0000 0000000   0.0000  42.0000 13.03091871    17
CTC1_L_00389013-01
1 10048U 25062QB  26075.70034722  .00000000  00000+0  00000-0 0  9992
2 10048  70.0000 144.0000 0000000   0.0000 144.0000 13.03091871    14
CTC1_L_00389013-02
1 10049U 22637Q   26075.70034722  .00000000  00000+0  00000-0 0  9998
2 10049  70.0000 144.0000 0000000   0.0000 234.0000 13.03091871    15
CTC1_L_00389013-03
1 10050U 25792KI  26075.70034722  .00000000  00000+0  00000-0 0  9995
2 10050  70.0000 144.0000 0000000   0.0000 324.0000 13.03091871    17
CTC1_L_00389013-04
1 10051U 25628AD  26075.70034722  .00000000  00000+0  00000-0 0  9994
2 10051  70.0000 144.0000 0000000   0.0000  54.0000 13.03091871    18
CTC1_L_00389014-01
1 10052U 23809AC  26075.70034722  .00000000  00000+0  00000-0 0  9994
2 10052  70.0000 156.0000 0000000   0.0000 156.0000 13.03091871    15
CTC1_L_00389014-02
1 10053U 22969YH  26075.70034722  .00000000  00000+0  00000-0 0  9991
2 10053  70.0000 156.0000 0000000   0.0000 246.0000 13.03091871    16
CTC1_L_00389014-03
1 10054U 24650QS  26075.70034722  .00000000  00000+0  00000-0 0  9991
2 10054  70.0000 156.0000 0000000   0.0000 336.0000 13.03091871    17
CTC1_L_00389014-04
1 10055U 22922MI  26075.70034722  .00000000  00000+0  00000-0 0  9992
2 10055  70.0000 156.0000 0000000   0.0000  66.0000 13.03091871    18
CTC1_L_00389015-01
1 10056U 22591BS  26075.70034722  .00000000  00000+0  00000-0 0  9995
2 10056  70.0000 168.0000 0000000   0.0000 168.0000 13.03091871    15
CTC1_L_00389015-02
1 10057U 22725TD  26075.70034722  .00000000  00000+0  00000-0 0  9995
2 10057  70.0000 168.0000 0000000   0.0000 258.0000 13.03091871    16
CTC1_L_00389015-03
1 10058U 25682EK  26075.70034722  .00000000  00000+0  00000-0 0  9991
2 10058  70.0000 168.0000 0000000   0.0000 348.0000 13.03091871    17
CTC1_L_00389015-04
1 10059U 26027TL  26075.70034722  .00000000  00000+0  00000-0 0  9996
2 10059  70.0000 168.0000 0000000   0.0000  78.0000 13.03091871    18
CTC1_L_00389016-01
1 10060U 24104QG  26075.70034722  .00000000  00000+0  00000-0 0  9992
2 10060  70.0000 180.0000 0000000   0.0000 180.0000 13.03091871    18
CTC1_L_00389016-02
1 10061U 23241YY  26075.70034722  .00000000  00000+0  00000-0 0  9994
2 10061  70.0000 180.0000 0000000   0.0000 270.0000 13.03091871    19
